NORAD_CAT_ID,OBJECT_NAME,OBJECT_TYPE,EPOCH,MEAN_MOTION,ECCENTRICITY,INCLINATION,RA_OF_ASC_NODE,ARG_OF_PERICENTER,MEAN_ANOMALY,BSTAR,MEAN_MOTION_DOT,MEAN_MOTION_DDOT,TLE_LINE0,TLE_LINE1,TLE_LINE2,SEMIMAJOR_AXIS,PERIOD,APOGEE,PERIGEE,DECAYED
56454.0,STARLINK-5959,PAYLOAD,2023-12-25 11:32:01,14.98334061,0.0002612,70.0,14.6731,258.7424,101.3441,5.6744e-05,5.84e-06,0.0,0 STARLINK-5959,1 56454U 23064G   23359.48057653  .00000584  00000-0  56744-4 0  9996,2 56454  70.0000  14.6731 0002612 258.7424 101.3441 14.98334061 34637,6950.18,96.107,573.861,570.23,0.0
56454.0,STARLINK-5959,PAYLOAD,2023-12-26 03:33:23,14.9832644,0.0002865,69.9995,12.9887,268.501,91.5821,-4.5702e-05,-6.38e-06,0.0,0 STARLINK-5959,1 56454U 23064G   23360.14818363 -.00000638  00000-0 -45702-4 0  9998,2 56454  69.9995  12.9887 0002865 268.5010  91.5821 14.98326440 35095,6950.204,96.107,574.06,570.078,0.0
56454.0,STARLINK-5959,PAYLOAD,2023-12-26 09:57:55,14.98323889,0.0002356,70.0008,12.3166,253.383,106.7071,-3.9524e-05,-5.64e-06,0.0,0 STARLINK-5959,1 56454U 23064G   23360.41522605 -.00000564  00000-0 -39524-4 0  9992,2 56454  70.0008  12.3166 0002356 253.3830 106.7071 14.98323889 34778,6950.212,96.107,573.714,570.439,0.0
56454.0,STARLINK-5959,PAYLOAD,2023-12-27 03:35:23,14.98329531,0.0002578,70.0005,10.4649,258.2351,101.8519,-2.674e-05,-4.12e-06,0.0,0 STARLINK-5959,1 56454U 23064G   23361.14958165 -.00000412  00000-0 -26740-4 0  9995,2 56454  70.0005  10.4649 0002578 258.2351 101.8519 14.98329531 35244,6950.194,96.107,573.851,570.268,0.0
56454.0,STARLINK-5959,PAYLOAD,2023-12-27 09:59:55,14.98330824,0.0002479,70.0004,9.791,255.0324,105.056,-1.231e-05,-2.4e-06,0.0,0 STARLINK-5959,1 56454U 23064G   23361.41662013 -.00000240  00000-0 -12310-4 0  9996,2 56454  70.0004   9.7910 0002479 255.0324 105.0560 14.98330824 34923,6950.19,96.107,573.778,570.332,0.0
56454.0,STARLINK-5959,PAYLOAD,2023-12-28 03:37:25,14.98322699,0.0002543,70.0002,7.9396,252.7929,107.2952,2.1128e-05,1.59e-06,0.0,0 STARLINK-5959,1 56454U 23064G   23362.15098402  .00000159  00000-0  21128-4 0  9997,2 56454  70.0002   7.9396 0002543 252.7929 107.2952 14.98322699 35398,6950.215,96.107,573.848,570.313,0.0
56454.0,STARLINK-5959,PAYLOAD,2023-12-28 10:01:57,14.98322659,0.0002636,70.0,7.2658,255.8467,104.2399,7.1631e-06,-7e-08,0.0,0 STARLINK-5959,1 56454U 23064G   23362.41802569 -.00000007  00000-0  71631-5 0  9991,2 56454  70.0000   7.2658 0002636 255.8467 104.2399 14.98322659 35077,6950.216,96.107,573.913,570.249,0.0
56454.0,STARLINK-5959,PAYLOAD,2023-12-29 03:39:25,14.98331531,0.0002722,69.9996,5.4136,259.2797,100.8055,1.3813e-05,7.2e-07,0.0,0 STARLINK-5959,1 56454U 23064G   23363.15238046  .00000072  00000-0  13813-4 0  9994,2 56454  69.9996   5.4136 0002722 259.2797 100.8055 14.98331531 35541,6950.188,96.107,573.945,570.161,0.0
56454.0,STARLINK-5959,PAYLOAD,2023-12-29 10:03:57,14.98331629,0.0002705,70.0,4.7409,259.3018,100.7837,1.8133e-05,1.23e-06,0.0,0 STARLINK-5959,1 56454U 23064G   23363.41942019  .00000123  00000-0  18133-4 0  9992,2 56454  70.0000   4.7409 0002705 259.3018 100.7837 14.98331629 35223,6950.188,96.107,573.933,570.173,0.0
56454.0,STARLINK-5959,PAYLOAD,2023-12-30 03:41:26,14.98329638,0.0002813,70.0,2.8901,261.7561,98.3279,5.525e-05,5.66e-06,0.0,0 STARLINK-5959,1 56454U 23064G   23364.15377959  .00000566  00000-0  55250-4 0  9991,2 56454  70.0000   2.8901 0002813 261.7561  98.3279 14.98329638 35699,6950.194,96.107,574.014,570.104,0.0
56454.0,STARLINK-5959,PAYLOAD,2023-12-30 10:05:58,14.98332382,0.000293,69.9995,2.215,269.8138,90.2685,7.4373e-05,7.95e-06,0.0,0 STARLINK-5959,1 56454U 23064G   23364.42081747  .00000795  00000-0  74373-4 0  9999,2 56454  69.9995   2.2150 0002930 269.8138  90.2685 14.98332382 35375,6950.186,96.107,574.087,570.014,0.0
56454.0,STARLINK-5959,PAYLOAD,2023-12-31 03:43:27,14.98331909,0.000286,69.9997,0.3631,270.7664,89.3167,-1.0578e-05,-2.19e-06,0.0,0 STARLINK-5959,1 56454U 23064G   23365.15517894 -.00000219  00000-0 -10578-4 0  9997,2 56454  69.9997   0.3631 0002860 270.7664  89.3167 14.98331909 35847,6950.187,96.107,574.04,570.064,0.0
56454.0,STARLINK-5959,PAYLOAD,2023-12-31 10:07:59,14.9833247,0.0002631,70.0,359.6898,267.2171,92.8687,1.6332e-05,1.02e-06,0.0,0 STARLINK-5959,1 56454U 23064G   23365.42221756  .00000102  00000-0  16332-4 0  9999,2 56454  70.0000 359.6898 0002631 267.2171  92.8687 14.98332470 35525,6950.185,96.107,573.879,570.222,0.0
56454.0,STARLINK-5959,PAYLOAD,2024-01-01 03:45:28,14.98327105,0.0002533,70.0001,357.8382,263.2324,96.8547,-1.3447e-05,-2.53e-06,0.0,0 STARLINK-5959,1 56454U 23064G   24001.15658056 -.00000253  00000-0 -13447-4 0  9997,2 56454  70.0001 357.8382 0002533 263.2324  96.8547 14.98327105 35990,6950.202,96.107,573.827,570.306,0.0
56454.0,STARLINK-5959,PAYLOAD,2024-01-01 10:10:00,14.98328239,0.0002602,70.0003,357.1658,260.7242,99.3622,-2.6932e-05,-4.14e-06,0.0,0 STARLINK-5959,1 56454U 23064G   24001.42362011 -.00000414  00000-0 -26932-4 0  9992,2 56454  70.0003 357.1658 0002602 260.7242  99.3622 14.98328239 35675,6950.198,96.107,573.872,570.255,0.0
56454.0,STARLINK-5959,PAYLOAD,2024-01-02 03:47:29,14.98330824,0.0002621,70.0006,355.3152,260.746,99.3403,1.1276e-05,4.2e-07,0.0,0 STARLINK-5959,1 56454U 23064G   24002.15797694  .00000042  00000-0  11276-4 0  9992,2 56454  70.0006 355.3152 0002621 260.7460  99.3403 14.98330824 36143,6950.19,96.107,573.877,570.234,0.0
56454.0,STARLINK-5959,PAYLOAD,2024-01-02 08:35:53,14.98331052,0.000258,70.0005,354.81,257.4584,102.6287,3.2879e-05,2.99e-06,0.0,0 STARLINK-5959,1 56454U 23064G   24002.35825594  .00000299  00000-0  32879-4 0  9991,2 56454  70.0005 354.8100 0002580 257.4584 102.6287 14.98331052 35818,6950.19,96.107,573.848,570.261,0.0
56454.0,STARLINK-5959,PAYLOAD,2024-01-03 03:49:30,14.9832613,0.0002631,70.0004,352.7899,257.6967,102.3898,3.0326e-07,-8.9e-07,0.0,0 STARLINK-5959,1 56454U 23064G   24003.15937926 -.00000089  00000-0  30326-6 0  9998,2 56454  70.0004 352.7899 0002631 257.6967 102.3898 14.98326130 36292,6950.205,96.107,573.898,570.241,0.0
56454.0,STARLINK-5959,PAYLOAD,2024-01-03 08:37:54,14.98324864,0.0002654,70.0004,352.2848,258.9101,101.1759,-1.6081e-05,-2.85e-06,0.0,0 STARLINK-5959,1 56454U 23064G   24003.35966107 -.00000285  00000-0 -16081-4 0  9992,2 56454  70.0004 352.2848 0002654 258.9101 101.1759 14.98324864 35968,6950.209,96.107,573.918,570.229,0.0
56454.0,STARLINK-5959,PAYLOAD,2024-01-04 03:51:31,14.9832841,0.0002946,69.9997,350.2633,270.7955,89.2867,6.3251e-06,-1.8e-07,0.0,0 STARLINK-5959,1 56454U 23064G   24004.16077875 -.00000018  00000-0  63251-5 0  9992,2 56454  69.9997 350.2633 0002946 270.7955  89.2867 14.98328410 36440,6950.198,96.107,574.11,570.015,0.0
56454.0,STARLINK-5959,PAYLOAD,2024-01-04 13:28:18,14.98340407,0.0002851,70.0002,349.2536,284.2163,75.8679,9.4171e-05,1.031e-05,0.0,0 STARLINK-5959,1 56454U 23064G   24004.56132894  .00001031  00000-0  94171-4 0  9998,2 56454  70.0002 349.2536 0002851 284.2163  75.8679 14.98340407 36145,6950.161,96.106,574.007,570.044,0.0
56454.0,STARLINK-5959,PAYLOAD,2024-01-05 13:30:20,14.98317476,0.000296,69.9996,346.7279,276.1222,83.9599,-0.00014813,-1.859e-05,0.0,0 STARLINK-5959,1 56454U 23064G   24005.56274125 -.00001859  00000-0 -14813-3 0  9997,2 56454  69.9996 346.7279 0002960 276.1222  83.9599 14.98317476 36294,6950.232,96.108,574.154,570.039,0.0
56454.0,STARLINK-5959,PAYLOAD,2024-01-06 08:43:57,14.98325473,0.0003064,69.9995,344.708,277.399,82.6821,-0.00011499,-1.465e-05,0.0,0 STARLINK-5959,1 56454U 23064G   24006.36385895 -.00001465  00000-0 -11499-3 0  9993,2 56454  69.9995 344.7080 0003064 277.3990  82.6821 14.98325473 36775,6950.207,96.107,574.201,569.942,0.0
56454.0,STARLINK-5959,PAYLOAD,2024-01-07 03:57:33,14.98334674,0.0002943,69.9994,342.6881,271.003,89.0792,-0.00010144,-1.303e-05,0.0,0 STARLINK-5959,1 56454U 23064G   24007.16497199 -.00001303  00000-0 -10144-3 0  9990,2 56454  69.9994 342.6881 0002943 271.0030  89.0792 14.98334674 36895,6950.178,96.107,574.089,569.998,0.0
56454.0,STARLINK-5959,PAYLOAD,2024-01-07 08:45:57,14.98337239,0.0002922,69.9996,342.1828,276.4472,83.6354,-6.572e-05,-8.77e-06,0.0,0 STARLINK-5959,1 56454U 23064G   24007.36524937 -.00000877  00000-0 -65720-4 0  9999,2 56454  69.9996 342.1828 0002922 276.4472  83.6354 14.98337239 36567,6950.171,96.107,574.066,570.005,0.0
56454.0,STARLINK-5959,PAYLOAD,2024-01-08 03:59:34,14.98323151,0.0002457,70.0005,340.1649,261.9346,98.1534,0.00010392,1.147e-05,0.0,0 STARLINK-5959,1 56454U 23064G   24008.16637417  .00001147  00000-0  10392-3 0  9999,2 56454  70.0005 340.1649 0002457 261.9346  98.1534 14.98323151 37045,6950.214,96.107,573.787,570.371,0.0
56454.0,STARLINK-5959,PAYLOAD,2024-01-08 07:11:50,14.98324454,0.0002438,70.0005,339.8284,261.2213,98.867,0.00010715,1.186e-05,0.0,0 STARLINK-5959,1 56454U 23064G   24008.29989369  .00001186  00000-0  10715-3 0  9991,2 56454  70.0005 339.8284 0002438 261.2213  98.8670 14.98324454 36707,6950.21,96.107,573.77,570.381,0.0
56454.0,STARLINK-5959,PAYLOAD,2024-01-08 18:24:47,14.98319233,0.0002415,70.0008,338.6502,256.1499,103.9391,0.00013258,1.489e-05,0.0,0 STARLINK-5959,1 56454U 23064G   24008.76721795  .00001489  00000-0  13258-3 0  9991,2 56454  70.0008 338.6502 0002415 256.1499 103.9391 14.98319233 36778,6950.226,96.108,573.77,570.413,0.0
56454.0,STARLINK-5959,PAYLOAD,2024-01-09 04:01:36,14.98325814,0.0002306,70.0013,337.641,248.1926,111.8988,-3.0538e-05,-4.57e-06,0.0,0 STARLINK-5959,1 56454U 23064G   24009.16777808 -.00000457  00000-0 -30538-4 0  9999,2 56454  70.0013 337.6410 0002306 248.1926 111.8988 14.98325814 37195,6950.206,96.107,573.674,570.468,0.0
56454.0,STARLINK-5959,PAYLOAD,2024-01-09 07:13:52,14.98327598,0.0002339,70.0008,337.3037,274.305,85.7842,-6.0848e-06,-1.65e-06,0.0,0 STARLINK-5959,1 56454U 23064G   24009.30129808 -.00000165  00000-0 -60848-5 0  9990,2 56454  70.0008 337.3037 0002339 274.3050  85.7842 14.98327598 36857,6950.2,96.107,573.691,570.44,0.0
